{
  "norad_id": 64506,
  "name": "KUIPER-00046",
  "history": [
    {
      "epoch": "2026-03-28T14:17:19.243104",
      "apogee_km": 629.8848112954274,
      "perigee_km": 629.2106720232796,
      "latitude_deg": 48.55016797038127,
      "longitude_deg": -32.2452854400035,
      "semi_major_axis_km": 7007.684741659353,
      "eccentricity": 4.81e-05,
      "inclination_deg": 51.8976,
      "raan_deg": 159.4461,
      "arg_perigee_deg": 93.2505,
      "mean_anomaly_deg": 266.8512,
      "mean_motion_rev_day": 14.79929163
    }
  ]
}